STARLINK-3540           
1 51719U 22016F   22062.91667824  .00000422  00000+0  74295-5 0  9998
2 51719  53.2175  88.5018 0001627  64.7883 228.1147 15.73203990  2310
STARLINK-3526           
1 51720U 22016G   22062.91667824  .00000724  00000+0  95741-5 0  9994
2 51720  53.2175  88.4981 0001387  58.7346 236.0834 15.73203775  2312
STARLINK-3524           
1 51721U 22016H   22062.91667824  .00000028  00000+0  46084-5 0  9998
2 51721  53.2174  88.5065 0001195  45.6600 248.1022 15.73224897  2312
STARLINK-3535           
1 51722U 22016J   22062.91667824  .00000737  00000+0  96725-5 0  9993
2 51722  53.2175  88.4943 0001533  60.3584 236.3745 15.73203761  2317
STARLINK-3531           
1 51723U 22016K   22062.91667824  .00095899  00000+0  56343-3 0  9997
2 51723  53.2198  88.3373 0003761 311.3323  65.8740 15.77507318  2313
STARLINK-3529           
1 51724U 22016L   22062.91667824 -.00025160  00000+0 -17524-3 0  9992
2 51724  53.2176  88.4988 0001081  52.8351 245.3983 15.73219558  2310
STARLINK-3522           
1 51725U 22016M   22062.91667824 -.00019054  00000+0 -13152-3 0  9991
2 51725  53.2197  88.5029 0001187  59.0057 237.2227 15.73223330  2314
STARLINK-3527           
1 51726U 22016N   22062.91667824  .00000756  00000+0  98096-5 0  9991
2 51726  53.2175  88.4892 0001766  69.6951 229.5909 15.73203737  2311
STARLINK-3532           
1 51727U 22016P   22062.91667824 -.00004926  00000+0 -30664-4 0  9993
2 51727  53.2198  88.4996 0001091  51.6476 245.9358 15.73226773  2311
STARLINK-3448           
1 51728U 22016Q   22062.91667824  .00085561  00000+0  60854-3 0  9999
2 51728  53.2175  88.4936 0001395  66.7739 234.0091 15.73173551  2315
STARLINK-3523           
1 51729U 22016R   22062.91667824  .00082476  00000+0  58678-3 0  9993
2 51729  53.2178  88.4969 0001332  52.8862 245.8798 15.73181265  2314
STARLINK-3530           
1 51730U 22016S   22062.91667824  .00058004  00000+0  41481-3 0  9999
2 51730  53.2181  88.4911 0001250  67.5856 234.4460 15.73202123  2319
STARLINK-3514           
1 51731U 22016T   22062.91667824  .00000255  00000+0  62298-5 0  9996
2 51731  53.2176  88.4947 0001353  61.0025 239.1654 15.73217523  2311
STARLINK-3518           
1 51732U 22016U   22062.91667824  .00000352  00000+0  69332-5 0  9991
2 51732  53.2175  88.4828 0001843  73.9007 228.5765 15.73203971  2312
STARLINK-3525           
1 51733U 22016V   22062.91667824  .00000268  00000+0  63296-5 0  9991
2 51733  53.2175  88.4852 0001473  62.7718 238.4288 15.73204025  2315
STARLINK-3450           
1 51734U 22016W   22062.91667824  .00000402  00000+0  72866-5 0  9995
2 51734  53.2175  88.4789 0001790  69.5703 234.8218 15.73203923  2315
STARLINK-3517           
1 51735U 22016X   22062.91667824  .00000474  00000+0  77983-5 0  9990
2 51735  53.2175  88.4813 0001669  78.3990 224.7165 15.73203901  2310
STARLINK-3447           
1 51736U 22016Y   22062.91667824  .00056849  00000+0  40700-3 0  9993
2 51736  53.2183  88.4833 0001297  59.1484 246.7628 15.73184382  2313
STARLINK-3509           
1 51737U 22016Z   22062.91667824  .00000590  00000+0  86251-5 0  9999
2 51737  53.2175  88.4801 0001627  71.9071 231.8467 15.73203793  2315
STARLINK-3515           
1 51738U 22016AA  22062.91667824  .00073894  00000+0  52671-3 0  9994
2 51738  53.2183  88.4814 0001295  59.1214 248.0672 15.73181554  2315
STARLINK-3516           
1 51739U 22016AB  22062.91667824  .00000105  00000+0  51735-5 0  9992
2 51739  53.2175  88.4775 0001757  72.1248 232.9055 15.73204124  2314
STARLINK-3500           
1 51740U 22016AC  22062.91667824  .00000499  00000+0  79708-5 0  9990
2 51740  53.2175  88.4700 0001471  73.3569 235.5031 15.73203871  2317
STARLINK-3520           
1 51741U 22016AD  22062.91667824  .00000549  00000+0  83290-5 0  9998
2 51741  53.2175  88.4749 0001462  75.5935 230.7135 15.73203855  2316
STARLINK-3521           
1 51742U 22016AE  22062.91667824 -.00019391  00000+0 -13393-3 0  9991
2 51742  53.2182  88.4758 0001084  61.4142 248.2891 15.73223460  2316
STARLINK-3512           
1 51743U 22016AF  22062.91667824  .00083397  00000+0  59398-3 0  9992
2 51743  53.2181  88.4795 0001273  72.4890 235.3238 15.73151228  2313
STARLINK-3452           
1 51744U 22016AG  22062.91667824  .00000366  00000+0  70256-5 0  9996
2 51744  53.2175  88.4661 0001309  81.2436 229.5313 15.73203942  2313
STARLINK-3449           
1 51745U 22016AH  22062.91667824  .00000235  00000+0  60912-5 0  9990
2 51745  53.2175  88.4711 0001592  70.8426 237.3791 15.73204035  2318
STARLINK-3502           
1 51746U 22016AJ  22062.91667824  .00000356  00000+0  69585-5 0  9990
2 51746  53.2175  88.4636 0001945  64.1013 247.9501 15.73203920  2313
STARLINK-3446           
1 51747U 22016AK  22062.91667824  .00000342  00000+0  68534-5 0  9999
2 51747  53.2175  88.4672 0001391  79.9223 230.2142 15.73203949  2313
STARLINK-3501           
1 51748U 22016AL  22062.91667824  .00000406  00000+0  73139-5 0  9998
2 51748  53.2175  88.4610 0001724  67.9036 245.4243 15.73203903  2315
STARLINK-3451           
1 51749U 22016AM  22062.91667824  .00019875  00000+0  14573-3 0  9994
2 51749  53.2183  88.4720 0001431  49.8298 261.7616 15.73194044  2311
STARLINK-3505           
1 51750U 22016AN  22062.91667824  .00000296  00000+0  65262-5 0  9996
2 51750  53.2175  88.4584 0001416  76.5228 238.0817 15.73203974  2318
STARLINK-3506           
1 51751U 22016AP  22062.91667824  .00000564  00000+0  84379-5 0  9995
2 51751  53.2175  88.4621 0001392  64.6528 248.0369 15.73203811  2318
STARLINK-3511           
1 51752U 22016AQ  22062.91667824  .00000209  00000+0  59079-5 0  9991
2 51752  53.2175  88.4572 0001398  60.3601 254.8827 15.73204002  2312
STARLINK-3507           
1 51753U 22016AR  22062.91667824  .00000362  00000+0  69979-5 0  9992
2 51753  53.2175  88.4595 0001427  60.7247 253.2416 15.73203898  2310
STARLINK-3457           
1 51754U 22016AS  22062.91667824  .00000340  00000+0  68419-5 0  9997
2 51754  53.2175  88.4545 0001772  67.2124 249.3070 15.73203927  2310
STARLINK-3460           
1 51755U 22016AT  22062.91667824  .00000366  00000+0  70295-5 0  9991
2 51755  53.2175  88.4556 0001786  74.4572 241.4238 15.73203904  2319
STARLINK-3513           
1 51756U 22016AU  22062.91667824  .00000353  00000+0  69389-5 0  9990
2 51756  53.2175  88.4534 0001800  67.7769 249.3808 15.73203889  2318
STARLINK-3459           
1 51757U 22016AV  22062.91667824  .00000467  00000+0  77455-5 0  9990
2 51757  53.2175  88.4518 0001446  67.3233 250.4726 15.73203826  2312
STARLINK-3458           
1 51758U 22016AW  22062.91667824 -.00002265  00000+0 -11716-4 0  9998
2 51758  53.2175  88.4508 0001726  60.1015 258.3316 15.73205751  2313
STARLINK-3456           
1 51759U 22016AX  22062.91667824 -.00001275  00000+0 -46619-5 0  9990
2 51759  53.2175  88.4492 0001532  63.3805 255.6912 15.73205104  2317
FALCON 9 DEB            
1 51760U 22016AY  22062.90060092  .00089726  00000+0  44557-3 0  9997
2 51760  53.2298  88.2819 0006462 300.9490  59.0898 15.81228057  1783
FALCON 9 DEB            
1 51761U 22016AZ  22062.64541629  .00094765  00000+0  46153-3 0  9992
2 51761  53.2281  89.5292 0005290 274.9815  85.0605 15.81636882  1744
FALCON 9 DEB            
1 51762U 22016BA  22062.63910049  .00098186  00000+0  45381-3 0  9991
2 51762  53.2250  89.4822 0010121 276.4730  83.5142 15.82690914  1747
FALCON 9 DEB            
1 51763U 22016BB  22062.70037189  .00095105  00000+0  43436-3 0  9992
2 51763  53.2236  89.1501 0009653 259.1500 100.8438 15.82964348  1751
STARLINK-3622           
1 51768U 22017A   22062.91667824 -.00874812  00000+0 -54529-2 0  9992
2 51768  53.2176 112.6102 0001275  55.5412 157.1232 15.78537986  1486
STARLINK-3621           
1 51769U 22017B   22062.91667824 -.00874812  00000+0 -54428-2 0  9991
2 51769  53.2176 112.6084 0001228  59.2699 154.2511 15.78579175  1475
STARLINK-3612           
1 51770U 22017C   22062.91667824 -.00874784  00000+0 -54483-2 0  9992
2 51770  53.2176 112.6094 0001201  63.4909 149.6237 15.78556454  1478
STARLINK-3614           
1 51771U 22017D   22062.91667824 -.00874902  00000+0 -54376-2 0  9996
2 51771  53.2176 112.6076 0001287  55.3152 158.6090 15.78602154  1479
STARLINK-3623           
1 51772U 22017E   22062.91667824 -.00874963  00000+0 -54217-2 0  9998
2 51772  53.2176 112.6052 0001231  60.1856 154.9658 15.78668688  1471
STARLINK-3624           
1 51773U 22017F   22062.91667824 -.00874871  00000+0 -54322-2 0  9994
2 51773  53.2176 112.6067 0001206  62.2188 152.1198 15.78623852  1474
STARLINK-3629           
1 51774U 22017G   22062.91667824 -.00874968  00000+0 -54112-2 0  9999
2 51774  53.2176 112.6035 0001193  63.7882 152.1898 15.78711759  1484
STARLINK-3620           
1 51775U 22017H   22062.91667824 -.00874980  00000+0 -54276-2 0  9995
2 51775  53.2176 112.6059 0001163  70.9552 143.7949 15.78645898  1485
STARLINK-3608           
1 51776U 22017J   22062.91667824 -.00875108  00000+0 -54062-2 0  9992
2 51776  53.2176 112.6027 0001352  49.4415 166.9371 15.78734470  1481
STARLINK-3625           
1 51777U 22017K   22062.91667824 -.00874951  00000+0 -54162-2 0  9999
2 51777  53.2176 112.6043 0001219  60.5188 155.0403 15.78690771  1483
STARLINK-3615           
1 51778U 22017L   22062.91667824 -.00879616  00000+0 -40784-2 0  9998
2 51778  53.2177 112.4727 0001038  72.2807 216.0445 15.84855497  1477
STARLINK-3611           
1 51779U 22017M   22062.91667824 -.00875075  00000+0 -54006-2 0  9996
2 51779  53.2176 112.6018 0001235  60.0104 156.7646 15.78757384  1489
STARLINK-3617           
1 51780U 22017N   22062.91667824 -.00875157  00000+0 -53795-2 0  9993
2 51780  53.2176 112.5986 0001171  69.9286 148.4544 15.78846090  1480
STARLINK-3580           
1 51781U 22017P   22062.91667824 -.00875041  00000+0 -53952-2 0  9991
2 51781  53.2176 112.6010 0001173  65.6988 151.4856 15.78778938  1489
